{
  "norad_id": 65422,
  "name": "STARLINK-35074",
  "history": [
    {
      "epoch": "2026-03-28T10:27:53.538048",
      "apogee_km": 476.09718130454075,
      "perigee_km": 474.2854354329402,
      "latitude_deg": -52.61298918974635,
      "longitude_deg": 44.0594867200125,
      "semi_major_axis_km": 6853.32830836874,
      "eccentricity": 0.00013218,
      "inclination_deg": 53.1595,
      "raan_deg": 145.3223,
      "arg_perigee_deg": 80.9861,
      "mean_anomaly_deg": 279.1289,
      "mean_motion_rev_day": 15.30207958
    }
  ]
}