{"fetched_at":"2026-03-29T02:12:04Z","count":15717,"tles":[{"name":"STARLINK-35074","line1":"1 65422U 25192U   26087.43603632  .00023935  00000+0  81746-3 0  9998","line2":"2 65422  53.1595 145.3223 0001321  80.9861 279.1289 15.30207958 32258","category":"Starlink"}]}